{"fetched_at":"2026-03-29T02:12:04Z","count":15717,"tles":[{"name":"SUPERVIEW NEO-1 04","line1":"1 63126U 25040B   26086.72293718 -.00000459  00000+0 -17420-4 0  9997","line2":"2 63126  97.3424 203.1637 0001810 156.9248 203.2069 15.21516564 59806","category":"Other"}]}